start=new Date('2022-02-24T00:00:00.000Z').valueOf();
sats=[{"EPHEMERIS_TYPE":"0","COUNTRY_CODE":"US","OBJECT_TYPE":"PAYLOAD","DECAY_DATE":null,"NORAD_CAT_ID":"48565","OBJECT_NAME":"STARLINK-2191","REF_FRAME":"TEME","CENTER_NAME":"EARTH","MEAN_ANOMALY":"287.5788","FILE":"3317219","INCLINATION":"53.0534","LAUNCH_DATE":"2021-05-15","MEAN_ELEMENT_THEORY":"SGP4","GP_ID":"196786721","ELEMENT_SET_NO":"999","ECCENTRICITY":"0.00014540","OBJECT_ID":"2021-041N","TIME_SYSTEM":"UTC","RA_OF_ASC_NODE":"272.3792","MEAN_MOTION":"15.06390205","TLE_LINE2":"2 48565  53.0534 272.3792 0001454  72.5360 287.5788 15.06390205 42911","APOAPSIS":"548.251","SITE":"AFETR","RCS_SIZE":"LARGE","EPOCH":"2022-02-23T20:44:38.958720","MEAN_MOTION_DOT":"0.00000358","TLE_LINE1":"1 48565U 21041N   22054.86433980  .00000358  00000-0  42940-4 0  9999","MEAN_MOTION_DDOT":"0.0000000000000","PERIOD":"95.593","SEMIMAJOR_AXIS":"6925.379","BSTAR":"0.00004294000000","PERIAPSIS":"546.237","CLASSIFICATION_TYPE":"U","ARG_OF_PERICENTER":"72.5360","REV_AT_EPOCH":"4291"},{"LAUNCH_DATE":"2021-05-15","INCLINATION":"53.0536","FILE":"3317219","GP_ID":"196786971","ELEMENT_SET_NO":"999","MEAN_ELEMENT_THEORY":"SGP4","TIME_SYSTEM":"UTC","OBJECT_ID":"2021-041P","ECCENTRICITY":"0.00014760","DECAY_DATE":null,"COUNTRY_CODE":"US","OBJECT_TYPE":"PAYLOAD","EPHEMERIS_TYPE":"0","OBJECT_NAME":"STARLINK-2214","NORAD_CAT_ID":"48566","CENTER_NAME":"EARTH","REF_FRAME":"TEME","MEAN_ANOMALY":"290.5024","BSTAR":"0.00015376000000","SEMIMAJOR_AXIS":"6925.348","PERIOD":"95.592","PERIAPSIS":"546.191","REV_AT_EPOCH":"4276","CLASSIFICATION_TYPE":"U","ARG_OF_PERICENTER":"69.6123","MEAN_MOTION":"15.06400192","RA_OF_ASC_NODE":"282.5653","RCS_SIZE":"LARGE","SITE":"AFETR","APOAPSIS":"548.235","TLE_LINE2":"2 48566  53.0536 282.5653 0001476  69.6123 290.5024 15.06400192 42768","EPOCH":"2022-02-23T19:43:34.351104","MEAN_MOTION_DOT":"0.00002009","MEAN_MOTION_DDOT":"0.0000000000000","TLE_LINE1":"1 48566U 21041P   22054.82192536  .00002009  00000-0  15376-3 0  9992"},{"TLE_LINE2":"2 48567  53.0547 282.2015 0001533  73.7534 286.3624 15.06394537 42771","APOAPSIS":"548.292","SITE":"AFETR","RCS_SIZE":"LARGE","RA_OF_ASC_NODE":"282.2015","MEAN_MOTION":"15.06394537","TLE_LINE1":"1 48567U 21041Q   22054.90027588 -.00001033  00000-0 -50458-4 0  9995","MEAN_MOTION_DDOT":"0.0000000000000","MEAN_MOTION_DOT":"-0.00001033","EPOCH":"2022-02-23T21:36:23.836032","PERIOD":"95.592","SEMIMAJOR_AXIS":"6925.365","BSTAR":"-0.00005045800000","ARG_OF_PERICENTER":"73.7534","CLASSIFICATION_TYPE":"U","REV_AT_EPOCH":"4277","PERIAPSIS":"546.169","NORAD_CAT_ID":"48567","OBJECT_NAME":"STARLINK-2215","COUNTRY_CODE":"US","OBJECT_TYPE":"PAYLOAD","EPHEMERIS_TYPE":"0","DECAY_DATE":null,"MEAN_ANOMALY":"286.3624","REF_FRAME":"TEME","CENTER_NAME":"EARTH","MEAN_ELEMENT_THEORY":"SGP4","ELEMENT_SET_NO":"999","GP_ID":"196787723","FILE":"3317219","INCLINATION":"53.0547","LAUNCH_DATE":"2021-05-15","ECCENTRICITY":"0.00015330","OBJECT_ID":"2021-041Q","TIME_SYSTEM":"UTC"},{"EPOCH":"2022-02-23T20:18:06.719040","MEAN_MOTION_DOT":"0.00001016","TLE_LINE1":"1 48568U 21041R   22054.84591110  .00001016  00000-0  87082-4 0  9998","MEAN_MOTION_DDOT":"0.0000000000000","RA_OF_ASC_NODE":"272.4473","MEAN_MOTION":"15.06394901","APOAPSIS":"548.344","TLE_LINE2":"2 48568  53.0543 272.4473 0001610  81.6056 278.5116 15.06394901 42909","RCS_SIZE":"MEDIUM","SITE":"AFETR","PERIAPSIS":"546.114","CLASSIFICATION_TYPE":"U","ARG_OF_PERICENTER":"81.6056","REV_AT_EPOCH":"4290","PERIOD":"95.592","BSTAR":"0.00008708200000","SEMIMAJOR_AXIS":"6925.364","REF_FRAME":"TEME","CENTER_NAME":"EARTH","MEAN_ANOMALY":"278.5116","COUNTRY_CODE":"US","OBJECT_TYPE":"PAYLOAD","EPHEMERIS_TYPE":"0","DECAY_DATE":null,"NORAD_CAT_ID":"48568","OBJECT_NAME":"STARLINK-2217","ECCENTRICITY":"0.00016100","TIME_SYSTEM":"UTC","OBJECT_ID":"2021-041R","FILE":"3317219","INCLINATION":"53.0543","LAUNCH_DATE":"2021-05-15","ELEMENT_SET_NO":"999","GP_ID":"196788474","MEAN_ELEMENT_THEORY":"SGP4"},{"TLE_LINE1":"1 48569U 21041S   22054.87171138  .00000414  00000-0  46711-4 0  9991","MEAN_MOTION_DDOT":"0.0000000000000","MEAN_MOTION_DOT":"0.00000414","EPOCH":"2022-02-23T20:55:15.863232","TLE_LINE2":"2 48569  53.0536 272.3472 0001530  68.4651 291.6501 15.06392273 42910","APOAPSIS":"548.297","SITE":"AFETR","RCS_SIZE":"LARGE","RA_OF_ASC_NODE":"272.3472","MEAN_MOTION":"15.06392273","ARG_OF_PERICENTER":"68.4651","CLASSIFICATION_TYPE":"U","REV_AT_EPOCH":"4291","PERIAPSIS":"546.178","PERIOD":"95.593","SEMIMAJOR_AXIS":"6925.372","BSTAR":"0.00004671100000","MEAN_ANOMALY":"291.6501","REF_FRAME":"TEME","CENTER_NAME":"EARTH","NORAD_CAT_ID":"48569","OBJECT_NAME":"STARLINK-2219","EPHEMERIS_TYPE":"0","COUNTRY_CODE":"US","OBJECT_TYPE":"PAYLOAD","DECAY_DATE":null,"ECCENTRICITY":"0.00015300","OBJECT_ID":"2021-041S","TIME_SYSTEM":"UTC","MEAN_ELEMENT_THEORY":"SGP4","ELEMENT_SET_NO":"999","GP_ID":"196787222","INCLINATION":"53.0536","FILE":"3317219","LAUNCH_DATE":"2021-05-15"},{"TLE_LINE1":"1 48570U 21041T   22054.85973001 -.00000327  00000-0 -30193-5 0  9993","MEAN_MOTION_DDOT":"0.0000000000000","MEAN_MOTION_DOT":"-0.00000327","EPOCH":"2022-02-23T20:38:00.672864","TLE_LINE2":"2 48570  53.0537 282.3829 0001669  72.3781 287.7390 15.06391850 42766","APOAPSIS":"548.394","SITE":"AFETR","RCS_SIZE":"LARGE","RA_OF_ASC_NODE":"282.3829","MEAN_MOTION":"15.06391850","ARG_OF_PERICENTER":"72.3781","CLASSIFICATION_TYPE":"U","REV_AT_EPOCH":"4276","PERIAPSIS":"546.083","PERIOD":"95.593","SEMIMAJOR_AXIS":"6925.374","BSTAR":"-0.00000301930000","MEAN_ANOMALY":"287.7390","REF_FRAME":"TEME","CENTER_NAME":"EARTH","NORAD_CAT_ID":"48570","OBJECT_NAME":"STARLINK-2220","COUNTRY_CODE":"US","EPHEMERIS_TYPE":"0","OBJECT_TYPE":"PAYLOAD","DECAY_DATE":null,"ECCENTRICITY":"0.00016690","OBJECT_ID":"2021-041T","TIME_SYSTEM":"UTC","MEAN_ELEMENT_THEORY":"SGP4","GP_ID":"196787472","ELEMENT_SET_NO":"999","FILE":"3317219","INCLINATION":"53.0537","LAUNCH_DATE":"2021-05-15"},{"PERIAPSIS":"546.259","REV_AT_EPOCH":"4277","CLASSIFICATION_TYPE":"U","ARG_OF_PERICENTER":"66.5967","BSTAR":"0.00004260800000","SEMIMAJOR_AXIS":"6925.401","PERIOD":"95.593","EPOCH":"2022-02-23T20:48:38.180448","MEAN_MOTION_DOT":"0.00000353","MEAN_MOTION_DDOT":"0.0000000000000","TLE_LINE1":"1 48571U 21041U   22054.86710857  .00000353  00000-0  42608-4 0  9993","MEAN_MOTION":"15.06382932","RA_OF_ASC_NODE":"282.3677","RCS_SIZE":"LARGE","SITE":"AFETR","APOAPSIS":"548.273","TLE_LINE2":"2 48571  53.0536 282.3677 0001454  66.5967 293.5175 15.06382932 42778","TIME_SYSTEM":"UTC","OBJECT_ID":"2021-041U","ECCENTRICITY":"0.00014540","LAUNCH_DATE":"2021-05-15","FILE":"3317219","INCLINATION":"53.0536","GP_ID":"196788224","ELEMENT_SET_NO":"999","MEAN_ELEMENT_THEORY":"SGP4","CENTER_NAME":"EARTH","REF_FRAME":"TEME","MEAN_ANOMALY":"293.5175","DECAY_DATE":null,"COUNTRY_CODE":"US","OBJECT_TYPE":"PAYLOAD","EPHEMERIS_TYPE":"0","OBJECT_NAME":"STARLINK-2221","NORAD_CAT_ID":"48571"},{"SEMIMAJOR_AXIS":"6925.338","BSTAR":"0.00021708000000","PERIOD":"95.592","PERIAPSIS":"546.215","REV_AT_EPOCH":"4277","ARG_OF_PERICENTER":"78.7916","CLASSIFICATION_TYPE":"U","MEAN_MOTION":"15.06403373","RA_OF_ASC_NODE":"282.3717","SITE":"AFETR","RCS_SIZE":"LARGE","TLE_LINE2":"2 48572  53.0545 282.3717 0001427  78.7916 281.3233 15.06403373 42776","APOAPSIS":"548.191","MEAN_MOTION_DOT":"0.00002954","EPOCH":"2022-02-23T20:43:18.599808","MEAN_MOTION_DDOT":"0.0000000000000","TLE_LINE1":"1 48572U 21041V   22054.86340972  .00002954  00000-0  21708-3 0  9997","LAUNCH_DATE":"2021-05-15","FILE":"3317219","INCLINATION":"53.0545","MEAN_ELEMENT_THEORY":"SGP4","GP_ID":"196787974","ELEMENT_SET_NO":"999","OBJECT_ID":"2021-041V","TIME_SYSTEM":"UTC","ECCENTRICITY":"0.00014270","DECAY_DATE":null,"COUNTRY_CODE":"US","OBJECT_TYPE":"PAYLOAD","EPHEMERIS_TYPE":"0","OBJECT_NAME":"STARLINK-2222","NORAD_CAT_ID":"48572","CENTER_NAME":"EARTH","REF_FRAME":"TEME","MEAN_ANOMALY":"281.3233"},{"OBJECT_ID":"2021-041W","TIME_SYSTEM":"UTC","ECCENTRICITY":"0.00018600","MEAN_ELEMENT_THEORY":"SGP4","GP_ID":"196786722","ELEMENT_SET_NO":"999","LAUNCH_DATE":"2021-05-15","FILE":"3317219","INCLINATION":"53.0537","MEAN_ANOMALY":"293.4927","CENTER_NAME":"EARTH","REF_FRAME":"TEME","OBJECT_NAME":"STARLINK-2224","NORAD_CAT_ID":"48573","DECAY_DATE":null,"EPHEMERIS_TYPE":"0","COUNTRY_CODE":"US","OBJECT_TYPE":"PAYLOAD","REV_AT_EPOCH":"4290","CLASSIFICATION_TYPE":"U","ARG_OF_PERICENTER":"66.6258","PERIAPSIS":"545.958","SEMIMAJOR_AXIS":"6925.381","BSTAR":"0.00005488100000","PERIOD":"95.593","MEAN_MOTION_DDOT":"0.0000000000000","TLE_LINE1":"1 48573U 21041W   22054.84222969  .00000536  00000-0  54881-4 0  9994","EPOCH":"2022-02-23T20:12:48.645216","MEAN_MOTION_DOT":"0.00000536","SITE":"AFETR","RCS_SIZE":"LARGE","TLE_LINE2":"2 48573  53.0537 272.4580 0001860  66.6258 293.4927 15.06389288 42909","APOAPSIS":"548.535","MEAN_MOTION":"15.06389288","RA_OF_ASC_NODE":"272.4580"},{"MEAN_ELEMENT_THEORY":"SGP4","GP_ID":"196750684","ELEMENT_SET_NO":"999","FILE":"3316601","INCLINATION":"53.0511","LAUNCH_DATE":"2021-05-15","ECCENTRICITY":"0.00018810","OBJECT_ID":"2021-041X","TIME_SYSTEM":"UTC","NORAD_CAT_ID":"48574","OBJECT_NAME":"STARLINK-2225","OBJECT_TYPE":"PAYLOAD","COUNTRY_CODE":"US","EPHEMERIS_TYPE":"0","DECAY_DATE":null,"MEAN_ANOMALY":"192.0773","REF_FRAME":"TEME","CENTER_NAME":"EARTH","PERIOD":"95.593","SEMIMAJOR_AXIS":"6925.414","BSTAR":"0.00244850000000","ARG_OF_PERICENTER":"62.1307","CLASSIFICATION_TYPE":"U","REV_AT_EPOCH":"4372","PERIAPSIS":"545.976","TLE_LINE2":"2 48574  53.0511 242.1296 0001881  62.1307 192.0773 15.06378780 43728","APOAPSIS":"548.581","SITE":"AFETR","RCS_SIZE":"LARGE","RA_OF_ASC_NODE":"242.1296","MEAN_MOTION":"15.06378780","TLE_LINE1":"1 48574U 21041X   22054.91667824  .00036357  00000-0  24485-2 0  9991","MEAN_MOTION_DDOT":"0.0000000000000","EPOCH":"2022-02-23T22:00:00.999936","MEAN_MOTION_DOT":"0.00036357"}];
